NORAD_CAT_ID,OBJECT_NAME,OBJECT_TYPE,EPOCH,MEAN_MOTION,ECCENTRICITY,INCLINATION,RA_OF_ASC_NODE,ARG_OF_PERICENTER,MEAN_ANOMALY,BSTAR,MEAN_MOTION_DOT,MEAN_MOTION_DDOT,TLE_LINE0,TLE_LINE1,TLE_LINE2,SEMIMAJOR_AXIS,PERIOD,APOGEE,PERIGEE,DECAYED
52108.0,STARLINK-3698,PAYLOAD,2023-04-25 03:01:28,15.08838438,0.0001559,53.2155,110.794,76.8398,283.2768,7.9423e-05,9.76e-06,0.0,0 STARLINK-3698,1 52108U 22029W   23115.12602964  .00000976  00000-0  79423-4 0  9994,2 52108  53.2155 110.7940 0001559  76.8398 283.2768 15.08838438 62330,6917.885,95.438,540.829,538.672,0.0
52108.0,STARLINK-3698,PAYLOAD,2023-04-25 10:58:24,15.08835547,0.00011,53.2153,109.3036,102.8303,257.2812,2.7936e-06,-2.43e-06,0.0,0 STARLINK-3698,1 52108U 22029W   23115.45723164 -.00000243  00000-0  27936-5 0  9997,2 52108  53.2153 109.3036 0001100 102.8303 257.2812 15.08835547 62380,6917.894,95.438,540.52,538.998,0.0
52108.0,STARLINK-3698,PAYLOAD,2023-04-26 02:52:18,15.08816872,0.0001367,53.2156,106.3335,86.3758,273.7391,-0.00014091,-2.528e-05,0.0,0 STARLINK-3698,1 52108U 22029W   23116.11965481 -.00002528  00000-0 -14091-3 0  9996,2 52108  53.2156 106.3335 0001367  86.3758 273.7391 15.08816872 62483,6917.951,95.439,540.762,538.87,0.0
52108.0,STARLINK-3698,PAYLOAD,2023-04-26 10:49:13,15.08826676,0.0001245,53.217,104.8445,90.7064,269.4071,-0.00010369,-1.937e-05,0.0,0 STARLINK-3698,1 52108U 22029W   23116.45085044 -.00001937  00000-0 -10369-3 0  9998,2 52108  53.2170 104.8445 0001245  90.7064 269.4071 15.08826676 62534,6917.921,95.438,540.647,538.925,0.0
52108.0,STARLINK-3698,PAYLOAD,2023-04-27 04:18:27,15.08831523,0.00011,53.2169,101.5735,100.1777,259.934,4.7651e-05,4.7e-06,0.0,0 STARLINK-3698,1 52108U 22029W   23117.17948828  .00000470  00000-0  47651-4 0  9990,2 52108  53.2169 101.5735 0001100 100.1777 259.9340 15.08831523 62647,6917.906,95.438,540.532,539.01,0.0
52108.0,STARLINK-3698,PAYLOAD,2023-04-27 10:40:00,15.08836799,0.0001081,53.2168,100.384,97.4135,262.698,8.1011e-05,1.002e-05,0.0,0 STARLINK-3698,1 52108U 22029W   23117.44444605  .00001002  00000-0  81011-4 0  9994,2 52108  53.2168 100.3840 0001081  97.4135 262.6980 15.08836799 62689,6917.89,95.438,540.503,539.007,0.0
52108.0,STARLINK-3698,PAYLOAD,2023-04-28 05:44:37,15.08849053,9.52e-05,53.2164,96.8155,103.6213,256.4885,0.00032353,4.866e-05,0.0,0 STARLINK-3698,1 52108U 22029W   23118.23931905  .00004866  00000-0  32353-3 0  9991,2 52108  53.2164  96.8155 0000952 103.6213 256.4885 15.08849053 62802,6917.853,95.437,540.376,539.059,0.0
52108.0,STARLINK-3698,PAYLOAD,2023-04-28 08:55:23,15.08857544,9.88e-05,53.2158,96.2207,101.0574,259.0529,0.00044892,6.867e-05,0.0,0 STARLINK-3698,1 52108U 22029W   23118.37179957  .00006867  00000-0  44892-3 0  9991,2 52108  53.2158  96.2207 0000988 101.0574 259.0529 15.08857544 62828,6917.827,95.436,540.375,539.008,0.0
52108.0,STARLINK-3698,PAYLOAD,2023-04-29 04:00:01,15.08848201,0.0001246,53.216,92.6526,98.9604,261.1529,2.6503e-05,1.34e-06,0.0,0 STARLINK-3698,1 52108U 22029W   23119.16668013  .00000134  00000-0  26503-4 0  9996,2 52108  53.2160  92.6526 0001246  98.9604 261.1529 15.08848201 62948,6917.855,95.437,540.582,538.858,0.0
52108.0,STARLINK-3698,PAYLOAD,2023-04-29 10:21:33,15.08849018,0.0001425,53.2157,91.4634,90.119,269.9965,1.9021e-05,1.5e-07,0.0,0 STARLINK-3698,1 52108U 22029W   23119.43163802  .00000015  00000-0  19021-4 0  9997,2 52108  53.2157  91.4634 0001425  90.1190 269.9965 15.08849018 62985,6917.853,95.437,540.704,538.732,0.0
52108.0,STARLINK-3698,PAYLOAD,2023-04-30 10:12:20,15.08847176,0.0001303,53.2153,87.0019,92.5465,267.5677,8.0008e-05,9.86e-06,0.0,0 STARLINK-3698,1 52108U 22029W   23120.42523672  .00000986  00000-0  80008-4 0  9993,2 52108  53.2153  87.0019 0001303  92.5465 267.5677 15.08847176 63130,6917.858,95.437,540.625,538.822,0.0
52108.0,STARLINK-3698,PAYLOAD,2023-05-01 05:16:58,15.08834714,0.0001378,53.2162,83.4331,89.1803,270.9347,6.802e-06,-1.8e-06,0.0,0 STARLINK-3698,1 52108U 22029W   23121.22012654 -.00000180  00000-0  68020-5 0  9993,2 52108  53.2162  83.4331 0001378  89.1803 270.9347 15.08834714 63256,6917.897,95.438,540.715,538.808,0.0
52108.0,STARLINK-3698,PAYLOAD,2023-05-01 06:52:22,15.08835882,0.000136,53.2158,83.1357,90.6945,269.4203,2.1637e-05,5.6e-07,0.0,0 STARLINK-3698,1 52108U 22029W   23121.28636587  .00000056  00000-0  21637-4 0  9999,2 52108  53.2158  83.1357 0001360  90.6945 269.4203 15.08835882 63263,6917.893,95.438,540.699,538.817,0.0
52108.0,STARLINK-3698,PAYLOAD,2023-05-02 06:43:08,15.08856332,0.0001276,53.2161,78.6744,96.4182,263.6955,0.00031772,4.774e-05,0.0,0 STARLINK-3698,1 52108U 22029W   23122.27995531  .00004774  00000-0  31772-3 0  9997,2 52108  53.2161  78.6744 0001276  96.4182 263.6955 15.08856332 63419,6917.83,95.437,540.578,538.813,0.0
52108.0,STARLINK-3698,PAYLOAD,2023-05-02 21:01:36,15.08845951,0.0001125,53.2166,75.9992,87.228,272.8841,0.00022899,3.359e-05,0.0,0 STARLINK-3698,1 52108U 22029W   23122.87612006  .00003359  00000-0  22899-3 0  9994,2 52108  53.2166  75.9992 0001125  87.2280 272.8841 15.08845951 63500,6917.862,95.437,540.505,538.949,0.0
52108.0,STARLINK-3698,PAYLOAD,2023-05-03 03:23:09,15.08850659,0.0001181,53.2167,74.8107,88.7956,271.3171,0.00022526,3.3e-05,0.0,0 STARLINK-3698,1 52108U 22029W   23123.14107717  .00003300  00000-0  22526-3 0  9996,2 52108  53.2167  74.8107 0001181  88.7956 271.3171 15.08850659 63540,6917.848,95.437,540.53,538.896,0.0
52108.0,STARLINK-3698,PAYLOAD,2023-05-03 20:52:23,15.08839779,0.0001159,53.217,71.54,91.8107,268.3018,-0.00013221,-2.391e-05,0.0,0 STARLINK-3698,1 52108U 22029W   23123.86971937 -.00002391  00000-0 -13221-3 0  9991,2 52108  53.2170  71.5400 0001159  91.8107 268.3018 15.08839779 63650,6917.881,95.438,540.548,538.944,0.0
52108.0,STARLINK-3698,PAYLOAD,2023-05-04 08:00:05,15.0884514,0.0001146,53.217,69.4583,87.7592,272.3531,-1.1447e-05,-4.7e-06,0.0,0 STARLINK-3698,1 52108U 22029W   23124.33339723 -.00000470  00000-0 -11447-4 0  9990,2 52108  53.2170  69.4583 0001146  87.7592 272.3531 15.08845140 63728,6917.865,95.437,540.522,538.937,0.0
52108.0,STARLINK-3698,PAYLOAD,2023-05-04 20:43:11,15.08838171,0.0001215,53.2177,67.0796,90.8206,269.2925,4.3966e-05,4.12e-06,0.0,0 STARLINK-3698,1 52108U 22029W   23124.86332213  .00000412  00000-0  43966-4 0  9990,2 52108  53.2177  67.0796 0001215  90.8206 269.2925 15.08838171 63806,6917.886,95.438,540.592,538.91,0.0
52108.0,STARLINK-3698,PAYLOAD,2023-05-04 23:53:57,15.08841856,0.0001258,53.218,66.4847,89.3338,270.7799,8.1309e-05,1.006e-05,0.0,0 STARLINK-3698,1 52108U 22029W   23124.99580047  .00001006  00000-0  81309-4 0  9997,2 52108  53.2180  66.4847 0001258  89.3338 270.7799 15.08841856 63828,6917.875,95.437,540.61,538.869,0.0
52108.0,STARLINK-3698,PAYLOAD,2023-05-05 06:15:29,15.08851677,0.0001233,53.2176,65.2955,90.31,269.8033,0.00024176,3.563e-05,0.0,0 STARLINK-3698,1 52108U 22029W   23125.26075527  .00003563  00000-0  24176-3 0  9998,2 52108  53.2176  65.2955 0001233  90.3100 269.8033 15.08851677 63868,6917.845,95.437,540.563,538.857,0.0
52108.0,STARLINK-3698,PAYLOAD,2023-05-05 23:44:44,15.08833644,0.000119,53.2173,62.0243,85.9733,274.1396,2.4687e-05,1.05e-06,0.0,0 STARLINK-3698,1 52108U 22029W   23125.98940587  .00000105  00000-0  24687-4 0  9991,2 52108  53.2173  62.0243 0001190  85.9733 274.1396 15.08833644 63971,6917.9,95.438,540.588,538.942,0.0
52108.0,STARLINK-3698,PAYLOAD,2023-05-06 06:06:16,15.08844274,0.0001141,53.2168,60.834,99.2941,260.818,0.00016021,2.263e-05,0.0,0 STARLINK-3698,1 52108U 22029W   23126.25436018  .00002263  00000-0  16021-3 0  9990,2 52108  53.2168  60.8340 0001141  99.2941 260.8180 15.08844274 64014,6917.867,95.437,540.522,538.943,0.0
52108.0,STARLINK-3698,PAYLOAD,2023-05-07 04:21:40,15.08856059,0.0001082,53.2166,56.6709,99.5464,260.565,0.00022279,3.261e-05,0.0,0 STARLINK-3698,1 52108U 22029W   23127.18171316  .00003261  00000-0  22279-3 0  9991,2 52108  53.2166  56.6709 0001082  99.5464 260.5650 15.08856059 64159,6917.831,95.437,540.445,538.948,0.0
52108.0,STARLINK-3698,PAYLOAD,2023-05-08 04:12:28,15.08832545,0.0001165,53.2168,52.2109,101.6783,258.434,3.3178e-05,2.4e-06,0.0,0 STARLINK-3698,1 52108U 22029W   23128.17533087  .00000240  00000-0  33178-4 0  9993,2 52108  53.2168  52.2109 0001165 101.6783 258.4340 15.08832545 64301,6917.903,95.438,540.574,538.962,0.0
52108.0,STARLINK-3698,PAYLOAD,2023-05-08 12:09:24,15.08834478,0.0001191,53.2168,50.7243,96.0319,264.0809,0.00022173,3.242e-05,0.0,0 STARLINK-3698,1 52108U 22029W   23128.50653301  .00003242  00000-0  22173-3 0  9999,2 52108  53.2168  50.7243 0001191  96.0319 264.0809 15.08834478 64359,6917.897,95.438,540.586,538.938,0.0
52108.0,STARLINK-3698,PAYLOAD,2023-05-09 00:52:29,15.08857233,0.0001228,53.2169,48.3462,85.2001,274.9132,0.0010121,0.00015864,0.0,0 STARLINK-3698,1 52108U 22029W   23129.03645062  .00015864  00000-0  10121-2 0  9995,2 52108  53.2169  48.3462 0001228  85.2001 274.9132 15.08857233 64437,6917.828,95.436,540.542,538.843,0.0
52108.0,STARLINK-3698,PAYLOAD,2023-05-10 00:43:15,15.08852215,0.000115,53.2171,43.8853,101.6429,258.4692,0.00027479,4.09e-05,0.0,0 STARLINK-3698,1 52108U 22029W   23130.03004559  .00004090  00000-0  27479-3 0  9991,2 52108  53.2171  43.8853 0001150 101.6429 258.4692 15.08852215 64584,6917.843,95.437,540.504,538.913,0.0
52108.0,STARLINK-3698,PAYLOAD,2023-05-11 00:34:03,15.08850638,0.0001279,53.2173,39.4265,88.1946,271.9193,0.0002055,2.985e-05,0.0,0 STARLINK-3698,1 52108U 22029W   23131.02364594  .00002985  00000-0  20550-3 0  9993,2 52108  53.2173  39.4265 0001279  88.1946 271.9193 15.08850638 64739,6917.848,95.437,540.598,538.828,0.0
52108.0,STARLINK-3698,PAYLOAD,2023-05-12 00:24:50,15.08835735,0.000114,53.2172,34.9656,87.7623,272.3499,7.5073e-05,9.07e-06,0.0,0 STARLINK-3698,1 52108U 22029W   23132.01725460  .00000907  00000-0  75073-4 0  9999,2 52108  53.2172  34.9656 0001140  87.7623 272.3499 15.08835735 64887,6917.893,95.438,540.547,538.97,0.0
